{"type": "FeatureCollection", "features": [ {"type": "Feature", "properties": {"norad_id": 66918, "name": "HULIANWANG DIGUI-108", "group": "last-30-days", "lat": 40.66814408445548, "lon": 152.19977735273673, "alt_km": 872.663193505854, "timestamp": "2025-12-15T11:38:35.907980+00:00", "meta": {"OBJECT_NAME": "HULIANWANG DIGUI-108", "OBJECT_ID": "2025-285D", "EPOCH": "2025-12-14T23:25:13.369152", "MEAN_MOTION": 14.05310338, "ECCENTRICITY": 0.0006366, "INCLINATION": 50.0039, "RA_OF_ASC_NODE": 108.1195, "ARG_OF_PERICENTER": 288.7286, "MEAN_ANOMALY": 71.2928, "EPHEMERIS_TYPE": 0, "CLASSIFICATION_TYPE": "U", "NORAD_CAT_ID": 66918, "ELEMENT_SET_NO": 999, "REV_AT_EPOCH": 122, "BSTAR": 0.00011671298, "MEAN_MOTION_DOT": 3.8e-07, "MEAN_MOTION_DDOT": 0}, "tle": {"line1": "1 66918U 25285D   25348.97584918  .00000038  00000+0  11671-3 0  9994", "line2": "2 66918  50.0039 108.1195 0006366 288.7286  71.2928 14.05310338  1228"}}, "geometry": {"type": "Point", "coordinates": [152.19977735273673, 40.66814408445548]}}, {"type": "Feature", "properties": {"norad_id": 66919, "name": "HULIANWANG DIGUI-109", "group": "last-30-days", "lat": 41.813748780413555, "lon": 154.70763682425087, "alt_km": 871.0776668638127, "timestamp": "2025-12-15T11:38:35.907990+00:00", "meta": {"OBJECT_NAME": "HULIANWANG DIGUI-109", "OBJECT_ID": "2025-285E", "EPOCH": "2025-12-14T21:42:26.501760", "MEAN_MOTION": 14.05717918, "ECCENTRICITY": 0.00078969, "INCLINATION": 50.0065, "RA_OF_ASC_NODE": 108.4121, "ARG_OF_PERICENTER": 299.0026, "MEAN_ANOMALY": 61.0087, "EPHEMERIS_TYPE": 0, "CLASSIFICATION_TYPE": "U", "NORAD_CAT_ID": 66919, "ELEMENT_SET_NO": 999, "REV_AT_EPOCH": 121, "BSTAR": 0.00014132697, "MEAN_MOTION_DOT": 8e-07, "MEAN_MOTION_DDOT": 0}, "tle": {"line1": "1 66919U 25285E   25348.90447340  .00000080  00000+0  14133-3 0  9998", "line2": "2 66919  50.0065 108.4121 0007896 299.0026  61.0087 14.05717918  1213"}}, "geometry": {"type": "Point", "coordinates": [154.70763682425087, 41.813748780413555]}}, {"type": "Feature", "properties": {"norad_id": 66920, "name": "HULIANWANG DIGUI-110", "group": "last-30-days", "lat": 43.894557071025126, "lon": 159.8935320592739, "alt_km": 870.048170018672, "timestamp": "2025-12-15T11:38:35.908002+00:00", "meta": {"OBJECT_NAME": "HULIANWANG DIGUI-110", "OBJECT_ID": "2025-285F", "EPOCH": "2025-12-14T23:23:38.952960", "MEAN_MOTION": 14.05851962, "ECCENTRICITY": 0.00058618, "INCLINATION": 50.0098, "RA_OF_ASC_NODE": 108.1218, "ARG_OF_PERICENTER": 296.03, "MEAN_ANOMALY": 64.0002, "EPHEMERIS_TYPE": 0, "CLASSIFICATION_TYPE": "U", "NORAD_CAT_ID": 66920, "ELEMENT_SET_NO": 999, "REV_AT_EPOCH": 122, "BSTAR": 0.00010795379, "MEAN_MOTION_DOT": 2.5e-07, "MEAN_MOTION_DDOT": 0}, "tle": {"line1": "1 66920U 25285F   25348.97475640  .00000025  00000+0  10795-3 0  9990", "line2": "2 66920  50.0098 108.1218 0005861 296.0300  64.0002 14.05851962  1226"}}, "geometry": {"type": "Point", "coordinates": [159.8935320592739, 43.894557071025126]}}, {"type": "Feature", "properties": {"norad_id": 66921, "name": "HULIANWANG DIGUI-111", "group": "last-30-days", "lat": 44.39733013051309, "lon": 161.30296393518364, "alt_km": 869.9660110189143, "timestamp": "2025-12-15T11:38:35.908012+00:00", "meta": {"OBJECT_NAME": "HULIANWANG DIGUI-111", "OBJECT_ID": "2025-285G", "EPOCH": "2025-12-14T19:58:37.913664", "MEAN_MOTION": 14.05885743, "ECCENTRICITY": 0.00070012, "INCLINATION": 50.0113, "RA_OF_ASC_NODE": 108.704, "ARG_OF_PERICENTER": 302.0174, "MEAN_ANOMALY": 58.0051, "EPHEMERIS_TYPE": 0, "CLASSIFICATION_TYPE": "U", "NORAD_CAT_ID": 66921, "ELEMENT_SET_NO": 999, "REV_AT_EPOCH": 120, "BSTAR": 0.00013170604, "MEAN_MOTION_DOT": 6.4e-07, "MEAN_MOTION_DDOT": 0}, "tle": {"line1": "1 66921U 25285G   25348.83238326  .00000064  00000+0  13171-3 0  9998", "line2": "2 66921  50.0113 108.7040 0007001 302.0174  58.0051 14.05885743  1208"}}, "geometry": {"type": "Point", "coordinates": [161.30296393518364, 44.39733013051309]}}, {"type": "Feature", "properties": {"norad_id": 66922, "name": "HULIANWANG DIGUI-112", "group": "last-30-days", "lat": 45.942487348635375, "lon": 166.18687033923734, "alt_km": 869.1346085008972, "timestamp": "2025-12-15T11:38:35.908022+00:00", "meta": {"OBJECT_NAME": "HULIANWANG DIGUI-112", "OBJECT_ID": "2025-285H", "EPOCH": "2025-12-14T23:22:20.247744", "MEAN_MOTION": 14.06001435, "ECCENTRICITY": 0.00069635, "INCLINATION": 50.0088, "RA_OF_ASC_NODE": 108.1144, "ARG_OF_PERICENTER": 308.8363, "MEAN_ANOMALY": 51.192, "EPHEMERIS_TYPE": 0, "CLASSIFICATION_TYPE": "U", "NORAD_CAT_ID": 66922, "ELEMENT_SET_NO": 999, "REV_AT_EPOCH": 122, "BSTAR": 0.00013076837, "MEAN_MOTION_DOT": 6.3e-07, "MEAN_MOTION_DDOT": 0}, "tle": {"line1": "1 66922U 25285H   25348.97384546  .00000063  00000+0  13077-3 0  9994", "line2": "2 66922  50.0088 108.1144 0006963 308.8363  51.1920 14.06001435  1229"}}, "geometry": {"type": "Point", "coordinates": [166.18687033923734, 45.942487348635375]}}, {"type": "Feature", "properties": {"norad_id": 66923, "name": "HULIANWANG DIGUI-113", "group": "last-30-days", "lat": 46.631892110600305, "lon": 168.71946990628126, "alt_km": 868.7070987212646, "timestamp": "2025-12-15T11:38:35.908032+00:00", "meta": {"OBJECT_NAME": "HULIANWANG DIGUI-113", "OBJECT_ID": "2025-285J", "EPOCH": "2025-12-14T23:21:49.781376", "MEAN_MOTION": 14.0605719, "ECCENTRICITY": 0.00054288, "INCLINATION": 50.0086, "RA_OF_ASC_NODE": 108.1137, "ARG_OF_PERICENTER": 303.7037, "MEAN_ANOMALY": 56.335, "EPHEMERIS_TYPE": 0, "CLASSIFICATION_TYPE": "U", "NORAD_CAT_ID": 66923, "ELEMENT_SET_NO": 999, "REV_AT_EPOCH": 122, "BSTAR": 0.00011078091, "MEAN_MOTION_DOT": 3.1e-07, "MEAN_MOTION_DDOT": 0}, "tle": {"line1": "1 66923U 25285J   25348.97349284  .00000031  00000+0  11078-3 0  9999", "line2": "2 66923  50.0086 108.1137 0005428 303.7037  56.3350 14.06057190  1220"}}, "geometry": {"type": "Point", "coordinates": [168.71946990628126, 46.631892110600305]}}, {"type": "Feature", "properties": {"norad_id": 66924, "name": "CZ-8A R/B", "group": "last-30-days", "lat": 19.119213218161082, "lon": -92.45060766324372, "alt_km": 720.1918541720279, "timestamp": "2025-12-15T11:38:35.908042+00:00", "meta": {"OBJECT_NAME": "CZ-8A R/B", "OBJECT_ID": "2025-285K", "EPOCH": "2025-12-14T18:10:03.489312", "MEAN_MOTION": 14.30502766, "ECCENTRICITY": 0.01193243, "INCLINATION": 50.0068, "RA_OF_ASC_NODE": 107.5676, "ARG_OF_PERICENTER": 113.8487, "MEAN_ANOMALY": 247.4987, "EPHEMERIS_TYPE": 0, "CLASSIFICATION_TYPE": "U", "NORAD_CAT_ID": 66924, "ELEMENT_SET_NO": 999, "REV_AT_EPOCH": 121, "BSTAR": 6.6868033e-05, "MEAN_MOTION_DOT": 2.2e-07, "MEAN_MOTION_DDOT": 0}, "tle": {"line1": "1 66924U 25285K   25348.75698483  .00000022  00000+0  66868-4 0  9992", "line2": "2 66924  50.0068 107.5676 0119324 113.8487 247.4987 14.30502766  1211"}}, "geometry": {"type": "Point", "coordinates": [-92.45060766324372, 19.119213218161082]}}, {"type": "Feature", "properties": {"norad_id": 66925, "name": "STARLINK-35945", "group": "last-30-days", "lat": 26.13253607950831, "lon": 58.326405942746845, "alt_km": 296.5652064790138, "timestamp": "2025-12-15T11:38:35.908054+00:00", "meta": {"OBJECT_NAME": "STARLINK-35945", "OBJECT_ID": "2025-286A", "EPOCH": "2025-12-14T20:00:06.000192", "MEAN_MOTION": 15.92441844, "ECCENTRICITY": 6.998e-05, "INCLINATION": 53.1569, "RA_OF_ASC_NODE": 40.0621, "ARG_OF_PERICENTER": 78.168, "MEAN_ANOMALY": 178.7455, "EPHEMERIS_TYPE": 0, "CLASSIFICATION_TYPE": "U", "NORAD_CAT_ID": 66925, "ELEMENT_SET_NO": 999, "REV_AT_EPOCH": 232, "BSTAR": -0.0036422534, "MEAN_MOTION_DOT": -0.01264366, "MEAN_MOTION_DDOT": 0.00047051323}, "tle": {"line1": "1 66925U 25286A   25348.83340278 -.01264366  47051-3 -36423-2 0  9998", "line2": "2 66925  53.1569  40.0621 0000699  78.1680 178.7455 15.92441844  2322"}}, "geometry": {"type": "Point", "coordinates": [58.326405942746845, 26.13253607950831]}}, {"type": "Feature", "properties": {"norad_id": 66926, "name": "STARLINK-35942", "group": "last-30-days", "lat": 29.079359202621728, "lon": 61.378862791951605, "alt_km": 295.70016962247155, "timestamp": "2025-12-15T11:38:35.908065+00:00", "meta": {"OBJECT_NAME": "STARLINK-35942", "OBJECT_ID": "2025-286B", "EPOCH": "2025-12-14T20:00:06.000192", "MEAN_MOTION": 15.92584212, "ECCENTRICITY": 6.575e-05, "INCLINATION": 53.1568, "RA_OF_ASC_NODE": 40.0541, "ARG_OF_PERICENTER": 71.3447, "MEAN_ANOMALY": 189.2625, "EPHEMERIS_TYPE": 0, "CLASSIFICATION_TYPE": "U", "NORAD_CAT_ID": 66926, "ELEMENT_SET_NO": 999, "REV_AT_EPOCH": 233, "BSTAR": -0.0036724416, "MEAN_MOTION_DOT": -0.01284122, "MEAN_MOTION_DDOT": 0.00048465618}, "tle": {"line1": "1 66926U 25286B   25348.83340278 -.01284122  48466-3 -36724-2 0  9996", "line2": "2 66926  53.1568  40.0541 0000657  71.3447 189.2625 15.92584212  2337"}}, "geometry": {"type": "Point", "coordinates": [61.378862791951605, 29.079359202621728]}}, {"type": "Feature", "properties": {"norad_id": 66927, "name": "STARLINK-35943", "group": "last-30-days", "lat": 30.35334180584228, "lon": 62.77688941567347, "alt_km": 295.25272832944574, "timestamp": "2025-12-15T11:38:35.908075+00:00", "meta": {"OBJECT_NAME": "STARLINK-35943", "OBJECT_ID": "2025-286C", "EPOCH": "2025-12-14T20:00:06.000192", "MEAN_MOTION": 15.92641958, "ECCENTRICITY": 7.602e-05, "INCLINATION": 53.1569, "RA_OF_ASC_NODE": 40.051, "ARG_OF_PERICENTER": 72.1063, "MEAN_ANOMALY": 190.12, "EPHEMERIS_TYPE": 0, "CLASSIFICATION_TYPE": "U", "NORAD_CAT_ID": 66927, "ELEMENT_SET_NO": 999, "REV_AT_EPOCH": 233, "BSTAR": -0.0036501304, "MEAN_MOTION_DOT": -0.01280233, "MEAN_MOTION_DDOT": 0.0004822585}, "tle": {"line1": "1 66927U 25286C   25348.83340278 -.01280233  48226-3 -36501-2 0  9993", "line2": "2 66927  53.1569  40.0510 0000760  72.1063 190.1200 15.92641958  2334"}}, "geometry": {"type": "Point", "coordinates": [62.77688941567347, 30.35334180584228]}}]}